STARLINK-2224           
1 48573U 21041W   26068.52650530  .00004199  00000+0  15382-3 0  9997
2 48573  53.1574 127.6957 0001391  96.9661 263.1498 15.30200941265249
TRANSPORTER-10 OBJECT AD
1 59125U 24043AD  26068.86032889  .00011954  00000+0  36311-3 0  9997
2 59125  97.5470 207.3753 0008984 221.4908 138.5653 15.34189901112026
